[{"OBJECT_NAME":"ONEWEB-0704","OBJECT_ID":"2024-188R","EPOCH":"2026-03-26T08:58:57.243360","MEAN_MOTION":13.10368779,"ECCENTRICITY":0.0002628,"INCLINATION":87.8814,"RA_OF_ASC_NODE":52.7238,"ARG_OF_PERICENTER":66.1315,"MEAN_ANOMALY":294.0087,"EPHEMERIS_TYPE":0,"CLASSIFICATION_TYPE":"U","NORAD_CAT_ID":61609,"ELEMENT_SET_NO":999,"REV_AT_EPOCH":7244,"BSTAR":0.00050205,"MEAN_MOTION_DOT":1.88e-6,"MEAN_MOTION_DDOT":0},{"OBJECT_NAME":"ONEWEB-0705","OBJECT_ID":"2024-188S","EPOCH":"2026-03-26T09:06:06.537312","MEAN_MOTION":13.10371013,"ECCENTRICITY":0.0001862,"INCLINATION":87.8807,"RA_OF_ASC_NODE":52.7342,"ARG_OF_PERICENTER":47.1272,"MEAN_ANOMALY":313.0011,"EPHEMERIS_TYPE":0,"CLASSIFICATION_TYPE":"U","NORAD_CAT_ID":61610,"ELEMENT_SET_NO":999,"REV_AT_EPOCH":6461,"BSTAR":-0.00030383,"MEAN_MOTION_DOT":-9.3e-7,"MEAN_MOTION_DDOT":0},{"OBJECT_NAME":"ONEWEB-0706","OBJECT_ID":"2024-188T","EPOCH":"2026-03-26T08:44:37.203072","MEAN_MOTION":13.10371408,"ECCENTRICITY":0.0002212,"INCLINATION":87.8793,"RA_OF_ASC_NODE":52.7483,"ARG_OF_PERICENTER":66.1448,"MEAN_ANOMALY":293.9911,"EPHEMERIS_TYPE":0,"CLASSIFICATION_TYPE":"U","NORAD_CAT_ID":61611,"ELEMENT_SET_NO":999,"REV_AT_EPOCH":7253,"BSTAR":0.0016963,"MEAN_MOTION_DOT":6.05e-6,"MEAN_MOTION_DDOT":0},{"OBJECT_NAME":"ONEWEB-0707","OBJECT_ID":"2024-188U","EPOCH":"2026-03-26T08:54:10.414368","MEAN_MOTION":13.10370478,"ECCENTRICITY":0.0002261,"INCLINATION":87.8808,"RA_OF_ASC_NODE":52.7357,"ARG_OF_PERICENTER":69.502,"MEAN_ANOMALY":290.635,"EPHEMERIS_TYPE":0,"CLASSIFICATION_TYPE":"U","NORAD_CAT_ID":61612,"ELEMENT_SET_NO":999,"REV_AT_EPOCH":7247,"BSTAR":0.00077427,"MEAN_MOTION_DOT":2.83e-6,"MEAN_MOTION_DDOT":0},{"OBJECT_NAME":"ONEWEB-0708","OBJECT_ID":"2024-188V","EPOCH":"2026-03-26T09:20:26.594880","MEAN_MOTION":13.10371891,"ECCENTRICITY":0.0001504,"INCLINATION":87.8798,"RA_OF_ASC_NODE":52.7581,"ARG_OF_PERICENTER":67.955,"MEAN_ANOMALY":292.1737,"EPHEMERIS_TYPE":0,"CLASSIFICATION_TYPE":"U","NORAD_CAT_ID":61613,"ELEMENT_SET_NO":999,"REV_AT_EPOCH":7245,"BSTAR":-0.0014261,"MEAN_MOTION_DOT":-4.85e-6,"MEAN_MOTION_DDOT":0}]
