ONEWEB-0704             
1 61609U 24188R   26085.37427365  .00000188  00000+0  50205-3 0  9994
2 61609  87.8814  52.7238 0002628  66.1315 294.0087 13.10368779 72449
ONEWEB-0705             
1 61610U 24188S   26085.37924233 -.00000093  00000+0 -30383-3 0  9994
2 61610  87.8807  52.7342 0001862  47.1272 313.0011 13.10371013 64613
ONEWEB-0706             
1 61611U 24188T   26085.36431948  .00000605  00000+0  16963-2 0  9994
2 61611  87.8793  52.7483 0002212  66.1448 293.9911 13.10371408 72533
ONEWEB-0707             
1 61612U 24188U   26085.37095387  .00000283  00000+0  77427-3 0  9994
2 61612  87.8808  52.7357 0002261  69.5020 290.6350 13.10370478 72478
ONEWEB-0708             
1 61613U 24188V   26085.38919670 -.00000485  00000+0 -14261-2 0  9998
2 61613  87.8798  52.7581 0001504  67.9550 292.1737 13.10371891 72459
